{"type": "FeatureCollection", "features": [{"type": "Feature", "properties": {"norad_id": 28054, "name": "DMSP 5D-3 F16 (USA 172)", "group": "weather", "lat": 10.431948037838783, "lon": 12.811580188837533, "alt_km": 845.0968516504599, "timestamp": "2025-12-22T22:44:20.593584+00:00", "meta": {"OBJECT_NAME": "DMSP 5D-3 F16 (USA 172)", "OBJECT_ID": "2003-048A", "EPOCH": "2025-12-22T14:42:59.278176", "MEAN_MOTION": 14.144276, "ECCENTRICITY": 0.00062592, "INCLINATION": 99.0038, "RA_OF_ASC_NODE": 14.1475, "ARG_OF_PERICENTER": 289.2854, "MEAN_ANOMALY": 180.1606, "EPHEMERIS_TYPE": 0, "CLASSIFICATION_TYPE": "U", "NORAD_CAT_ID": 28054, "ELEMENT_SET_NO": 999, "REV_AT_EPOCH": 14452, "BSTAR": 8.0345246e-05, "MEAN_MOTION_DOT": 1.08e-06, "MEAN_MOTION_DDOT": 0}, "tle": {"line1": "1 28054U 03048A   25356.61318609  .00000108  00000+0  80345-4 0  9991", "line2": "2 28054  99.0038  14.1475 0006259 289.2854 180.1606 14.14427600144529"}}, "geometry": {"type": "Point", "coordinates": [12.811580188837533, 10.431948037838783]}}, {"type": "Feature", "properties": {"norad_id": 28912, "name": "METEOSAT-9 (MSG-2)", "group": "weather", "lat": 7.938733614282642, "lon": 117.8716684267136, "alt_km": 36050.268913341235, "timestamp": "2025-12-22T22:44:20.593631+00:00", "meta": {"OBJECT_NAME": "METEOSAT-9 (MSG-2)", "OBJECT_ID": "2005-049B", "EPOCH": "2025-12-21T18:33:02.923200", "MEAN_MOTION": 1.00267778, "ECCENTRICITY": 0.0082444, "INCLINATION": 8.9481, "RA_OF_ASC_NODE": 55.8716, "ARG_OF_PERICENTER": 282.5202, "MEAN_ANOMALY": 75.201, "EPHEMERIS_TYPE": 0, "CLASSIFICATION_TYPE": "U", "NORAD_CAT_ID": 28912, "ELEMENT_SET_NO": 999, "REV_AT_EPOCH": 7330, "BSTAR": 0, "MEAN_MOTION_DOT": 1.44e-06, "MEAN_MOTION_DDOT": 0}, "tle": {"line1": "1 28912U 05049B   25355.77295050  .00000144  00000+0  00000+0 0  9992", "line2": "2 28912   8.9481  55.8716 0082444 282.5202  75.2010  1.00267778 73305"}}, "geometry": {"type": "Point", "coordinates": [117.8716684267136, 7.938733614282642]}}, {"type": "Feature", "properties": {"norad_id": 29522, "name": "DMSP 5D-3 F17 (USA 191)", "group": "weather", "lat": -30.676385476129823, "lon": 7.359140852287745, "alt_km": 853.4959421992517, "timestamp": "2025-12-22T22:44:20.593649+00:00", "meta": {"OBJECT_NAME": "DMSP 5D-3 F17 (USA 191)", "OBJECT_ID": "2006-050A", "EPOCH": "2025-12-22T12:42:10.509120", "MEAN_MOTION": 14.14923704, "ECCENTRICITY": 0.00098295, "INCLINATION": 98.7391, "RA_OF_ASC_NODE": 1.7145, "ARG_OF_PERICENTER": 195.4853, "MEAN_ANOMALY": 164.6021, "EPHEMERIS_TYPE": 0, "CLASSIFICATION_TYPE": "U", "NORAD_CAT_ID": 29522, "ELEMENT_SET_NO": 999, "REV_AT_EPOCH": 98743, "BSTAR": 8.6966238e-05, "MEAN_MOTION_DOT": 1.25e-06, "MEAN_MOTION_DDOT": 0}, "tle": {"line1": "1 29522U 06050A   25356.52928830  .00000125  00000+0  86966-4 0  9995", "line2": "2 29522  98.7391   1.7145 0009829 195.4853 164.6021 14.14923704987436"}}, "geometry": {"type": "Point", "coordinates": [7.359140852287745, -30.676385476129823]}}, {"type": "Feature", "properties": {"norad_id": 32958, "name": "FENGYUN 3A", "group": "weather", "lat": -31.140479273472923, "lon": 110.96939891825812, "alt_km": 830.7236543295248, "timestamp": "2025-12-22T22:44:20.593663+00:00", "meta": {"OBJECT_NAME": "FENGYUN 3A", "OBJECT_ID": "2008-026A", "EPOCH": "2025-12-22T09:54:12.895200", "MEAN_MOTION": 14.19517424, "ECCENTRICITY": 0.00076447, "INCLINATION": 98.6711, "RA_OF_ASC_NODE": 295.7362, "ARG_OF_PERICENTER": 279.1368, "MEAN_ANOMALY": 80.8943, "EPHEMERIS_TYPE": 0, "CLASSIFICATION_TYPE": "U", "NORAD_CAT_ID": 32958, "ELEMENT_SET_NO": 999, "REV_AT_EPOCH": 91032, "BSTAR": 6.1701645e-05, "MEAN_MOTION_DOT": 8.7e-07, "MEAN_MOTION_DDOT": 0}, "tle": {"line1": "1 32958U 08026A   25356.41264925  .00000087  00000+0  61702-4 0  9991", "line2": "2 32958  98.6711 295.7362 0007644 279.1368  80.8943 14.19517424910327"}}, "geometry": {"type": "Point", "coordinates": [110.96939891825812, -31.140479273472923]}}, {"type": "Feature", "properties": {"norad_id": 35491, "name": "GOES 14", "group": "weather", "lat": -0.9792431280686555, "lon": -43.36753611915111, "alt_km": 35833.578686098575, "timestamp": "2025-12-22T22:44:20.593678+00:00", "meta": {"OBJECT_NAME": "GOES 14", "OBJECT_ID": "2009-033A", "EPOCH": "2025-12-22T11:44:47.513184", "MEAN_MOTION": 1.00096969, "ECCENTRICITY": 5.644e-05, "INCLINATION": 1.2276, "RA_OF_ASC_NODE": 85.3067, "ARG_OF_PERICENTER": 186.425, "MEAN_ANOMALY": 239.8566, "EPHEMERIS_TYPE": 0, "CLASSIFICATION_TYPE": "U", "NORAD_CAT_ID": 35491, "ELEMENT_SET_NO": 999, "REV_AT_EPOCH": 482, "BSTAR": 0, "MEAN_MOTION_DOT": 2.7e-07, "MEAN_MOTION_DDOT": 0}, "tle": {"line1": "1 35491U 09033A   25356.48943881  .00000027  00000+0  00000+0 0  9990", "line2": "2 35491   1.2276  85.3067 0000564 186.4250 239.8566  1.00096969  4825"}}, "geometry": {"type": "Point", "coordinates": [-43.36753611915111, -0.9792431280686555]}}, {"type": "Feature", "properties": {"norad_id": 35951, "name": "DMSP 5D-3 F18 (USA 210)", "group": "weather", "lat": -11.032065648956447, "lon": 151.5501108089169, "alt_km": 855.0342037186765, "timestamp": "2025-12-22T22:44:20.593691+00:00", "meta": {"OBJECT_NAME": "DMSP 5D-3 F18 (USA 210)", "OBJECT_ID": "2009-057A", "EPOCH": "2025-12-22T13:21:10.237536", "MEAN_MOTION": 14.14775491, "ECCENTRICITY": 0.00117922, "INCLINATION": 98.8846, "RA_OF_ASC_NODE": 332.9085, "ARG_OF_PERICENTER": 36.8433, "MEAN_ANOMALY": 323.3548, "EPHEMERIS_TYPE": 0, "CLASSIFICATION_TYPE": "U", "NORAD_CAT_ID": 35951, "ELEMENT_SET_NO": 999, "REV_AT_EPOCH": 83461, "BSTAR": 0.00016137194, "MEAN_MOTION_DOT": 2.67e-06, "MEAN_MOTION_DDOT": 0}, "tle": {"line1": "1 35951U 09057A   25356.55636849  .00000267  00000+0  16137-3 0  9996", "line2": "2 35951  98.8846 332.9085 0011792  36.8433 323.3548 14.14775491834618"}}, "geometry": {"type": "Point", "coordinates": [151.5501108089169, -11.032065648956447]}}, {"type": "Feature", "properties": {"norad_id": 36411, "name": "EWS-G2 (GOES 15)", "group": "weather", "lat": 0.6431154564893169, "lon": 134.13130588220707, "alt_km": 35801.12569965127, "timestamp": "2025-12-22T22:44:20.593705+00:00", "meta": {"OBJECT_NAME": "EWS-G2 (GOES 15)", "OBJECT_ID": "2010-008A", "EPOCH": "2025-12-22T12:14:38.401152", "MEAN_MOTION": 1.00271074, "ECCENTRICITY": 0.00054783, "INCLINATION": 0.8364, "RA_OF_ASC_NODE": 86.0756, "ARG_OF_PERICENTER": 178.1069, "MEAN_ANOMALY": 72.1503, "EPHEMERIS_TYPE": 0, "CLASSIFICATION_TYPE": "U", "NORAD_CAT_ID": 36411, "ELEMENT_SET_NO": 999, "REV_AT_EPOCH": 5786, "BSTAR": 0, "MEAN_MOTION_DOT": 5.9e-07, "MEAN_MOTION_DDOT": 0}, "tle": {"line1": "1 36411U 10008A   25356.51016668  .00000059  00000+0  00000+0 0  9990", "line2": "2 36411   0.8364  86.0756 0005478 178.1069  72.1503  1.00271074 57862"}}, "geometry": {"type": "Point", "coordinates": [134.13130588220707, 0.6431154564893169]}}, {"type": "Feature", "properties": {"norad_id": 36744, "name": "COMS 1", "group": "weather", "lat": 3.6522472793170375, "lon": -158.9261276835368, "alt_km": 35785.57943242827, "timestamp": "2025-12-22T22:44:20.593719+00:00", "meta": {"OBJECT_NAME": "COMS 1", "OBJECT_ID": "2010-032A", "EPOCH": "2025-12-21T20:05:21.835392", "MEAN_MOTION": 1.00271509, "ECCENTRICITY": 7.401e-05, "INCLINATION": 4.3609, "RA_OF_ASC_NODE": 77.8959, "ARG_OF_PERICENTER": 208.2946, "MEAN_ANOMALY": 233.9792, "EPHEMERIS_TYPE": 0, "CLASSIFICATION_TYPE": "U", "NORAD_CAT_ID": 36744, "ELEMENT_SET_NO": 999, "REV_AT_EPOCH": 4931, "BSTAR": 0, "MEAN_MOTION_DOT": -3.25e-06, "MEAN_MOTION_DDOT": 0}, "tle": {"line1": "1 36744U 10032A   25355.83705828 -.00000325  00000+0  00000+0 0  9990", "line2": "2 36744   4.3609  77.8959 0000740 208.2946 233.9792  1.00271509 49312"}}, "geometry": {"type": "Point", "coordinates": [-158.9261276835368, 3.6522472793170375]}}, {"type": "Feature", "properties": {"norad_id": 37214, "name": "FENGYUN 3B", "group": "weather", "lat": 23.295150936304395, "lon": -139.09635736197245, "alt_km": 857.9657220682475, "timestamp": "2025-12-22T22:44:20.593731+00:00", "meta": {"OBJECT_NAME": "FENGYUN 3B", "OBJECT_ID": "2010-059A", "EPOCH": "2025-12-22T14:14:06.526176", "MEAN_MOTION": 14.14792227, "ECCENTRICITY": 0.00216252, "INCLINATION": 98.9892, "RA_OF_ASC_NODE": 36.6389, "ARG_OF_PERICENTER": 329.7589, "MEAN_ANOMALY": 182.8821, "EPHEMERIS_TYPE": 0, "CLASSIFICATION_TYPE": "U", "NORAD_CAT_ID": 37214, "ELEMENT_SET_NO": 999, "REV_AT_EPOCH": 78245, "BSTAR": 5.9157753e-05, "MEAN_MOTION_DOT": 6.9e-07, "MEAN_MOTION_DDOT": 0}, "tle": {"line1": "1 37214U 10059A   25356.59313109  .00000069  00000+0  59158-4 0  9990", "line2": "2 37214  98.9892  36.6389 0021625 329.7589 182.8821 14.14792227782453"}}, "geometry": {"type": "Point", "coordinates": [-139.09635736197245, 23.295150936304395]}}, {"type": "Feature", "properties": {"norad_id": 37849, "name": "SUOMI NPP", "group": "weather", "lat": 9.422562508002965, "lon": 115.66695931801073, "alt_km": 827.9488166579104, "timestamp": "2025-12-22T22:44:20.593761+00:00", "meta": {"OBJECT_NAME": "SUOMI NPP", "OBJECT_ID": "2011-061A", "EPOCH": "2025-12-21T22:15:21.719808", "MEAN_MOTION": 14.19516721, "ECCENTRICITY": 0.0002479, "INCLINATION": 98.7786, "RA_OF_ASC_NODE": 293.1866, "ARG_OF_PERICENTER": 104.3593, "MEAN_ANOMALY": 255.7858, "EPHEMERIS_TYPE": 0, "CLASSIFICATION_TYPE": "U", "NORAD_CAT_ID": 37849, "ELEMENT_SET_NO": 999, "REV_AT_EPOCH": 73329, "BSTAR": 6.3109e-05, "MEAN_MOTION_DOT": 8.9e-07, "MEAN_MOTION_DDOT": 0}, "tle": {"line1": "1 37849U 11061A   25355.92733472  .00000089  00000+0  63109-4 0  9996", "line2": "2 37849  98.7786 293.1866 0002479 104.3593 255.7858 14.19516721733291"}}, "geometry": {"type": "Point", "coordinates": [115.66695931801073, 9.422562508002965]}}]}